CUTE-1 (CO-55)          
1 27844U 03031E   19060.95489752  .00000051  00000-0  42811-4 0  9993
2 27844  98.6867  70.7805 0009570 352.4717   7.6316 14.22162352812796
CUBESAT XI-IV (CO-57)   
1 27848U 03031J   19060.91616871  .00000037  00000-0  36528-4 0  9999
2 27848  98.6948  71.2171 0009686   3.8887 356.2364 14.21759655812653
CUBESAT XI-V            
1 28895U 05043F   19060.87919547  .00000095  00000-0  27062-4 0  9995
2 28895  97.9402 207.4521 0016147 339.5547  20.5007 14.63634037711337
CUTE-1.7+APD II (CO-65) 
1 32785U 08021C   19061.50742803  .00000203  00000-0  27577-4 0  9999
2 32785  97.5485  66.3360 0011575 260.7195  99.2713 14.88256325587597
AAUSAT-II               
1 32788U 08021F   19061.53167664  .00000834  00000-0  81943-4 0  9998
2 32788  97.5044  82.0127 0011461 195.2120 164.8758 14.94613841588766
DELFI-C3 (DO-64)        
1 32789U 08021G   19060.91016143  .00001072  00000-0  76144-4 0  9997
2 32789  97.4791 113.7933 0013573 133.4421 226.7938 15.06681878590485
SEEDS II (CO-66)        
1 32791U 08021J   19060.56597674  .00000406  00000-0  46717-4 0  9997
2 32791  97.5303  71.2814 0012062 237.9132 122.0917 14.90742791587772
SWISSCUBE               
1 35932U 09051B   19060.96810570  .00000105  00000-0  34659-4 0  9996
2 35932  98.5735 223.8338 0008542 134.4438 225.7459 14.56248250500956
BEESAT-1                
1 35933U 09051C   19060.90919341  .00000087  00000-0  30712-4 0  9992
2 35933  98.5769 225.4754 0006582 144.5028 215.6607 14.56341988500970
ITUPSAT1                
1 35935U 09051E   19061.45429696  .00000057  00000-0  24231-4 0  9990
2 35935  98.5881 226.2805 0008911 142.0330 218.1496 14.55507026500891
TISAT 1                 
1 36799U 10035E   19060.90125649  .00000418  00000-0  48321-4 0  9990
2 36799  98.1380 209.5562 0013579  84.4005 275.8760 14.91014718468357
M-CUBED & EXP-1 PRIME   
1 37855U 11061F   19060.59091671  .00000897  00000-0  52982-4 0  9995
2 37855 101.7279 260.1082 0174391  40.1025 321.2909 15.05165337399893
STRAND-1                
1 39090U 13009E   19061.15825250  .00000016  00000-0  20813-4 0  9994
2 39090  98.4988 268.8639 0008078 249.2520 110.7801 14.35072484314822
SOMP                    
1 39134U 13015E   19060.93214150  .00001788  00000-0  91983-4 0  9999
2 39134  64.8646  12.7149 0020518 321.3667  38.5991 15.19854790323680
BEESAT-3                
1 39135U 13015F   19060.79498070  .00001029  00000-0  61260-4 0  9992
2 39135  64.8707  29.9599 0009869 283.6031  76.3996 15.17232061323728
BEESAT-2                
1 39136U 13015G   19061.31928010  .00001179  00000-0  69831-4 0  9992
2 39136  64.8705  31.7629 0011033 289.1575  70.8356 15.16669510323734
NEE-01 PEGASO           
1 39151U 13018B   19061.50685813  .00000128  00000-0  23970-4 0  9991
2 39151  97.9696 158.7447 0016993 187.6902 172.4052 14.80004105315726
ESTCUBE 1               
1 39161U 13021C   19061.17893917  .00000081  00000-0  20710-4 0  9992
2 39161  97.9922 147.9441 0009081 320.9359  39.1197 14.72163075312405
POPACS 1                
1 39268U 13055D   19061.35057061  .00004408  00000-0  12265-3 0  9991
2 39268  81.0003  75.0878 0630116 184.1128 175.4748 14.36096374281481
POPACS 2                
1 39269U 13055E   19060.86144242  .00002515  00000-0  73765-4 0  9995
2 39269  81.0142 102.9730 0685525 256.5248  95.8702 14.23376832279785
POPACS 3                
1 39270U 13055F   19061.18133018  .00001798  00000-0  56924-4 0  9992
2 39270  81.0161 118.0512 0714696 300.5788  52.6734 14.15514866278849
ZACUBE-1 (TSHEPISOSAT)  
1 39417U 13066B   19061.54237943  .00000225  00000-0  34637-4 0  9990
2 39417  97.5694  81.0848 0059683  29.9392 330.5212 14.81061650285036
WNISAT-1                
1 39423U 13066H   19061.44974662  .00000030  00000-0  16145-4 0  9990
2 39423  97.7634  11.1137 0174449 291.2368  67.0277 14.53019393279738
TRITON-1                
1 39427U 13066M   19061.54263444  .00000158  00000-0  32999-4 0  9990
2 39427  97.6653  45.6760 0114554 151.1389 209.6218 14.67785334282478
GOMX-1                  
1 39430U 13066Q   19061.41805212  .00000094  00000-0  26462-4 0  9992
2 39430  97.7318  25.1900 0149783 235.5237 123.1740 14.59201765280819
CUBEBUG-2 (LO-74)       
1 39440U 13066AA  19061.54231507  .00000220  00000-0  37306-4 0  9997
2 39440  97.6008  66.3773 0081823  76.6167 284.4149 14.75799205284026
NEE-02 KRYSAOR          
1 39441U 13066AB  19060.97396404  .00000137  00000-0  26403-4 0  9995
2 39441  97.6037  63.7356 0083359  84.6550 276.4163 14.74866983283773
FUNCUBE-1 (AO-73)       
1 39444U 13066AE  19061.53469668  .00000266  00000-0  39058-4 0  9997
2 39444  97.5684  82.9122 0058664  24.3962 336.0008 14.81869160283911
UWE-3                   
1 39446U 13066AG  19060.58099925  .00000237  00000-0  37964-4 0  9990
2 39446  97.5838  72.3450 0071346  56.8576 303.9454 14.78333858282557
BRITE-CA1 (TORONTO)     
1 40020U 14033L   19061.53695986  .00000041  00000-0  15286-4 0  9996
2 40020  97.7576 271.2905 0088386 140.7878 219.9774 14.66553620251457
DUCHIFAT-1              
1 40021U 14033M   19061.33190282  .00000493  00000-0  56241-4 0  9991
2 40021  97.9221 345.5909 0014130  51.0558 309.1917 14.90533614255409
NANOSATC-BR1            
1 40024U 14033Q   19061.43637576  .00000283  00000-0  35404-4 0  9992
2 40024  97.9132 343.3831 0013496  54.0231 306.2236 14.89761765255329
QB50P1                  
1 40025U 14033R   19060.76168267  .00000248  00000-0  32391-4 0  9997
2 40025  97.9067 340.6245 0013784  60.9323 299.3272 14.88873813255110
QB50P2                  
1 40032U 14033Y   19061.53615724  .00000228  00000-0  30583-4 0  9995
2 40032  97.9003 339.7328 0013082  55.2150 305.0295 14.88413159255152
PERSEUS-M2              
1 40037U 14033AD  19060.70870643  .00000067  00000-0  13818-4 0  9994
2 40037  97.8952 335.5677 0015768  67.6979 292.5906 14.86429403254783
PERSEUS-M1              
1 40039U 14033AF  19061.33796122  .00000084  00000-0  15887-4 0  9992
2 40039  97.8941 335.3801 0015570  63.3390 296.9417 14.86049900254810
POLYITAN-1              
1 40042U 14033AJ  19061.34216313  .00000365  00000-0  45152-4 0  9996
2 40042  97.9145 341.4556 0015836  49.0182 311.2401 14.88579556255116
TIGRISAT                
1 40043U 14033AK  19061.57194478  .00000126  00000-0  25876-4 0  9995
2 40043  97.7741 293.9117 0061445  85.8520 274.9709 14.74230757252678
AEROCUBE 6A             
1 40045U 14033AM  19060.64433384  .00000276  00000-0  46976-4 0  9996
2 40045  97.7950 296.3228 0059347  81.9907 278.8031 14.75320083252489
AEROCUBE 6B             
1 40046U 14033AN  19060.78371716  .00000270  00000-0  46137-4 0  9995
2 40046  97.7896 296.1664 0058568  81.0088 279.7745 14.75300082252643
UKUBE-1                 
1 40074U 14037F   19061.41236911  .00000205  00000-0  31780-4 0  9994
2 40074  98.4176 217.3129 0004031 190.8357 169.2772 14.83974884251590
BRITE-PL2 (HEWELIUSZ)   
1 40119U 14049B   19061.25941616  .00000077  00000-0  15625-4 0  9991
2 40119  97.9059 152.8612 0016794 211.1373 148.8848 14.84372947245580
FIREBIRD 4              
1 40378U 15003C   19061.41171349  .00002265  00000-0  93058-4 0  9992
2 40378  99.1013  19.6831 0129814  91.0147 270.5957 15.18263317225496
GRIFEX                  
1 40379U 15003D   19061.43457961  .00001425  00000-0  64713-4 0  9995
2 40379  99.0998  14.4423 0137364 107.4678 254.1618 15.15095181225196
EXOCUBE (CP10)          
1 40380U 15003E   19060.81479281  .00001114  00000-0  53890-4 0  9996
2 40380  99.1020  10.8146 0142072 119.1755 242.3772 15.13161819224891
TIANWANG 1C (TW-1C)     
1 40926U 15051B   19061.38765286  .00010260  00000-0  16376-3 0  9990
2 40926  97.1522 107.7918 0010404  59.3009  73.6333 15.53332274193336
TIANWANG 1A (TW-1A)     
1 40928U 15051D   19061.46918197  .00002972  00000-0  76162-4 0  9993
2 40928  97.1594  95.1410 0013305 103.8613   3.8395 15.40070837192515
EXACTVIEW 9             
1 40936U 15052G   19059.78262785  .00000758  00000-0  17065-4 0  9997
2 40936   6.0031 124.6617 0010229  24.6877 335.3740 14.76454985184954
ATHENOXAT 1             
1 41168U 15077C   19059.93042994  .00001638  00000-0  51766-4 0  9991
2 41168  14.9887 300.3840 0011573   9.4928  96.5606 15.13358898177329
GALASSIA                
1 41170U 15077E   19060.25809947  .00001992  00000-0  70082-4 0  9995
2 41170  14.9887 291.4850 0012942  35.1056 325.0116 15.13702254177439
VELOX-II                
1 41171U 15077F   19060.45609482  .00001550  00000-0  51237-4 0  9991
2 41171  14.9918 319.3666 0008924 322.0325  37.9366 15.11038507177204
HORYU-4                 
1 41340U 16012D   19061.19277258  .00000489  00000-0  30468-4 0  9996
2 41340  31.0049 104.9367 0013999 132.4201 227.7620 15.01180116166693
E-ST@R-II               
1 41459U 16025D   19061.45197633  .00000289  00000-0  19431-4 0  9993
2 41459  98.1063 142.5330 0168615   2.6399 357.5681 15.05114734156262
AAUSAT 4                
1 41460U 16025E   19061.22527452  .00001774  00000-0  93477-4 0  9998
2 41460  98.1026 143.2818 0159252 356.8598   3.1610 15.06853696156336
DIWATA-1                
1 41463U 98067HT  19061.36780191  .00018382  00000-0  11391-3 0  9990
2 41463  51.6333  87.7753 0002343  73.3031  26.2726 15.77118189162650
BEESAT-4                
1 41619U 16040W   19061.17007601  .00001572  00000-0  70087-4 0  9992
2 41619  97.3816 125.3584 0012659  51.1236 309.1128 15.22809881137342
CANX-7                  
1 41788U 16059F   19061.39666942  .00009316  00000-0  14647-2 0  9994
2 41788  98.2330 135.2159 0022796 357.3194   2.7806 14.72596251130064
RAVAN                   
1 41849U 16067B   19061.25962481  .00000406  00000-0  39466-4 0  9992
2 41849  97.9167 158.8179 0008397  29.3592 330.8100 14.98099726125764
CELTEE 1                
1 41850U 16067C   19061.25405827 -.00000005  00000-0  48780-5 0  9996
2 41850  97.9140 157.7570 0009225  31.7537 328.4238 14.96948147125704
